ADRAS-J                 
1 58992U 24034A   24244.50181552  .00008866  00000+0  80065-3 0  9998
2 58992  98.2196 221.0159 0044111 158.2811 202.0291 14.94995008 29115
